GAOFEN 1                
1 39150U 13018A   23067.46633857  .00001922  00000+0  28228-3 0  9999
2 39150  98.0404 138.3249 0022325 151.6885 208.5541 14.76494776531697
VNREDSAT 1              
1 39160U 13021B   23067.51059434  .00001676  00000+0  33597-3 0  9994
2 39160  98.0496 142.0022 0001032  71.2142 288.9181 14.62994717525224
ARIRANG-5 (KOMPSAT-5)   
1 39227U 13042A   23067.36946941  .00001568  00000+0  11625-3 0  9990
2 39227  97.6298 254.7589 0000471 247.7664 230.4179 15.04527804523961
SKYSAT-A                
1 39418U 13066C   23067.14645889  .00007361  00000+0  57070-3 0  9992
2 39418  97.5382 135.9938 0033365  89.8815 270.6233 15.01237333508192
DUBAISAT-2              
1 39419U 13066D   23067.34330086  .00005515  00000+0  49305-3 0  9996
2 39419  97.4228  90.8129 0014586 108.9911 251.2927 14.96183334506632
GPM-CORE                
1 39574U 14009C   23066.88475505  .00048360  00000+0  66798-3 0  9990
2 39574  64.9986  11.5502 0012427 272.3786  87.5938 15.56797935512596
SENTINEL-1A             
1 39634U 14016A   23067.31623557  .00000137  00000+0  38802-4 0  9992
2 39634  98.1821  76.0892 0001192  90.6122 269.5215 14.59200890475500
KAZEOSAT 1              
1 39731U 14024A   23067.37230988  .00000605  00000+0  19767-3 0  9995
2 39731  98.4365 145.3095 0001006  94.3069 265.8248 14.42016171466126
ALOS-2                  
1 39766U 14029A   23067.51118224 -.00000267  00000+0 -28873-4 0  9997
2 39766  97.9190 165.8562 0001753  97.2487 262.8977 14.79467839474671
KAZEOSAT 2              
1 40010U 14033A   23067.48889413  .00001508  00000+0  19566-3 0  9992
2 40010  97.6891 307.8809 0012413 297.2098  62.7856 14.82114021471550
HODOYOSHI-4             
1 40011U 14033B   23067.46229602  .00002778  00000+0  35199-3 0  9999
2 40011  97.6424 294.2795 0025274 295.0910  64.7709 14.82311318471191
DEIMOS-2                
1 40013U 14033D   23067.45323446  .00003516  00000+0  40638-3 0  9996
2 40013  97.7363 322.5655 0001733  29.2550 330.8820 14.86196460472394
HODOYOSHI-3             
1 40015U 14033F   23067.44349705  .00002824  00000+0  38131-3 0  9999
2 40015  97.6163 272.8816 0035632 323.3700  36.5076 14.79398629470359
SPOT 7                  
1 40053U 14034A   23067.47711369  .00001011  00000+0  22723-3 0  9991
2 40053  98.2152 135.8687 0000901 101.8546 258.2753 14.58579898462574
SKYSAT-B                
1 40072U 14037D   23067.23768112  .00002914  00000+0  37190-3 0  9994
2 40072  98.3747 313.3119 0006096 176.3091 183.8166 14.82281616468394
WORLDVIEW-3 (WV-3)      
1 40115U 14048A   23067.63207442  .00003643  00000+0  43483-3 0  9994
2 40115  97.8329 143.4648 0003845  14.4508 345.6816 14.84851690464354
GAOFEN 2                
1 40118U 14049A   23067.59790436  .00002694  00000+0  35591-3 0  9999
2 40118  97.7278 132.0519 0006182 166.7856 193.3528 14.80786632462180
YAOGAN 21               
1 40143U 14053A   23067.43377573 -.00116098  00000+0 -49727-2 0  9999
2 40143  97.3143 133.9104 0014804  14.8361  81.6888 15.23183438472743
YAOGAN 22               
1 40275U 14063A   23066.34598797 -.00000010  00000+0  94402-4 0  9995
2 40275 100.5900 191.6477 0006022  14.8400 345.2865 13.15452543402313
ASNARO                  
1 40298U 14070A   23067.22218711  .00035130  00000+0  16625-2 0  9990
2 40298  97.4472 151.1517 0005492 150.6833 264.6381 15.19257093462256
HODOYOSHI-1             
1 40299U 14070B   23067.43169304  .00018754  00000+0  62694-3 0  9998
2 40299  97.2080 132.8280 0009944 277.7078 138.6386 15.30998386463381
QSAT-EOS                
1 40301U 14070D   23067.34538130  .00058764  00000+0  99872-3 0  9992
2 40301  97.1694 136.0517 0014000 225.3982 197.0159 15.51148433464163
YAOGAN 23               
1 40305U 14071A   23067.41462795  .00024850  00000+0  94675-3 0  9993
2 40305  97.6405  27.9556 0002303  72.8598  42.2681 15.26704823460748
YAOGAN 24               
1 40310U 14072A   23067.38297408  .00002478  00000+0  36421-3 0  9990
2 40310  97.9976 189.8711 0016998 146.4784 213.7547 14.76280722447170
CBERS 4                 
1 40336U 14079A   23067.45427109  .00000384  00000+0  14859-3 0  9991
2 40336  98.4532 141.5057 0001239  75.3465 284.7866 14.35466727432282
RESURS P2               
1 40360U 14087A   23067.52831811  .00019623  00000+0  47797-3 0  9997
2 40360  97.1864 152.5080 0008161 207.5014 248.4430 15.40922850458857
YAOGAN 26               
1 40362U 14088A   23067.51976433  .00018599  00000+0  76882-3 0  9997
2 40362  97.1107 109.2382 0008952 232.1694 261.9427 15.23990737456235
SMAP                    
1 40376U 15003A   23067.15595123  .00001787  00000+0  35465-3 0  9996
2 40376  98.1302  75.1483 0001427  95.4384 264.6981 14.63407266432554
KOMPSAT-3A              
1 40536U 15014A   23067.41663093  .00011145  00000+0  63014-3 0  9997
2 40536  97.5609  11.9223 0001452 166.7555 305.2473 15.13248789438930
SENTINEL-2A             
1 40697U 15028A   23067.45921074  .00000232  00000+0  10509-3 0  9996
2 40697  98.5633 143.4024 0001023  84.7104 275.4233 14.30823858402600
GAOFEN 8                
1 40701U 15030A   23067.54890142  .00023954  00000+0  10176-2 0  9991
2 40701  97.5820 209.6888 0002828 225.3817 206.2836 15.23054974428599
CARBONITE 1 (CBNT-1)    
1 40718U 15032D   23067.50567552  .00003399  00000+0  49806-3 0  9997
2 40718  97.7049 284.9479 0015232 239.0981 120.8768 14.76143700412367
YAOGAN 27               
1 40878U 15040A   23067.34865578 -.00000004  00000+0  10000-3 0  9999
2 40878 100.1053  92.6775 0008935  97.2115 263.0017 13.15988473361744
GAOFEN 9-01             
1 40894U 15047A   23067.37995246  .00004344  00000+0  62198-3 0  9998
2 40894  97.7854 133.8032 0031255  84.9186 275.5564 14.76746071403126
LAPAN-A2                
1 40931U 15052B   23065.12710424  .00007244  00000+0  91033-3 0  9992
2 40931   5.9959 102.1517 0013628 274.4751  85.4148 14.77079588402094
YAOGAN 28               
1 41026U 15064A   23067.42595176  .00018168  00000+0  75812-3 0  9995
2 41026  97.5855 217.5066 0006333 167.0411 277.3850 15.23706160408427
YAOGAN 29               
1 41038U 15069A   23067.32024031  .00001304  00000+0  17466-3 0  9994
2 41038  98.0638  73.8851 0001267  36.9261 323.2049 14.81165380393349
KENT RIDGE 1            
1 41167U 15077B   23067.22858854  .00005743  00000+0  29234-3 0  9990
2 41167  14.9798  85.1299 0009675  63.9126  14.6008 15.11263790399192
TELEOS 1                
1 41169U 15077D   23067.27215320  .00017548  00000+0  83544-3 0  9992
2 41169  14.9798  43.1486 0008301 141.6163 218.5035 15.16520697399570
GAOFEN 4                
1 41194U 15083A   23067.54632913 -.00000331  00000+0  00000+0 0  9993
2 41194   0.1413 136.7671 0001615 223.9907 107.5584  1.00268991 26493
JASON-3                 
1 41240U 16002A   23066.90439147 -.00000010  00000+0  22180-3 0  9991
2 41240  66.0397 101.8819 0008015 272.7360  87.2738 12.80930665333658
SENTINEL-3A             
1 41335U 16011A   23067.45014455  .00000415  00000+0  18967-3 0  9994
2 41335  98.6325 135.9406 0001031  94.7850 265.3448 14.26735767367418
ZIYUAN 3-2 (ZY 3-2)     
1 41556U 16033A   23067.41948013  .00005950  00000+0  27161-3 0  9990
2 41556  97.4989 140.8508 0003055  42.2180  23.7303 15.20975246376033
NUSAT-1 (FRESCO)        
1 41557U 16033B   23067.68541405  .00072449  00000+0  14150-2 0  9994
2 41557  97.3833 172.5541 0009192 153.7944 312.3097 15.47176605378023
NUSAT-2 (BATATA)        
1 41558U 16033C   23067.39299811  .00079329  00000+0  14460-2 0  9992
2 41558  97.4109 179.5401 0008378 146.5149 287.7115 15.49145571378290
CARTOSAT-2C             
1 41599U 16040A   23067.45563954  .00010440  00000+0  49629-3 0  9999
2 41599  97.4509 129.1837 0013004 339.6904  76.9334 15.19312678372015
SKYSAT-C1               
1 41601U 16040C   23066.43087158  .00032671  00000+0  81920-3 0  9997
2 41601  97.1236 139.9957 0001151 125.2215 234.9139 15.39972449374436
LAPAN-A3                
1 41603U 16040E   23067.57213731  .00004834  00000+0  21572-3 0  9990
2 41603  97.1789  97.7635 0011664 316.8477 194.4025 15.21766972372180
BIROS                   
1 41604U 16040F   23067.54203719  .00016730  00000+0  62341-3 0  9990
2 41604  97.1766 106.9117 0009045 278.4250  81.5964 15.27479355372726
GAOFEN 3                
1 41727U 16049A   23067.45138256  .00000255  00000+0  90700-4 0  9994
2 41727  98.4095  76.9330 0000613 115.1095 245.0165 14.42225047346140
SKYSAT-C4               
1 41771U 16058B   23067.16746106  .00026684  00000+0  67403-3 0  9997
2 41771  97.0812 129.2203 0002778 141.0063 219.1385 15.39784110361500
SKYSAT-C5               
1 41772U 16058C   23067.63327781  .00020960  00000+0  72095-3 0  9998
2 41772  97.2281 128.9967 0001341  51.4259 308.7102 15.30095973360113
SKYSAT-C2               
1 41773U 16058D   23066.90069262  .00028806  00000+0  72858-3 0  9999
2 41773  97.0830 129.3616 0002427 132.6790 227.4661 15.39729792361486
SKYSAT-C3               
1 41774U 16058E   23067.17011275  .00035116  00000+0  72815-3 0  9996
2 41774  97.0819 131.7278 0001380 144.4599 215.6743 15.45646373361660
ALSAT 1B                
1 41785U 16059C   23067.57631867  .00001010  00000+0  17516-3 0  9991
2 41785  97.8756 108.3395 0010941 102.4744 257.7696 14.70283047344622
PATHFINDER 1            
1 41787U 16059E   23067.07498865  .00001571  00000+0  30388-3 0  9991
2 41787  97.8804 105.1671 0031075  53.4142 306.9942 14.64378597344313
SCATSAT 1               
1 41790U 16059H   23067.52322831  .00000938  00000+0  24809-3 0  9991
2 41790  98.2847 113.0622 0006224 112.5526 247.6328 14.51028006341368
GOKTURK 1A              
1 41875U 16073A   23067.58779481  .00001212  00000+0  24676-3 0  9992
2 41875  98.1490 323.4792 0001018  60.2662 299.8672 14.62800996333894
RESOURCESAT-2A          
1 41877U 16074A   23067.45484161  .00002809  00000+0  12991-2 0  9998
2 41877  98.6892 144.1511 0000838 347.1317  12.9921 14.21659687324274
CARTOSAT-2D             
1 41948U 17008A   23067.54262358  .00011014  00000+0  52480-3 0  9993
2 41948  97.4289 128.5630 0005664 130.8116 229.3397 15.19277398335898
